start=new Date('2022-05-24T00:00:00.000Z').valueOf();
sats=[{"TLE_LINE1":"1 51773U 22017F   22143.91668981 -.00721628  00000-0 -43170-1 0  9999","GP_ID":"204341791","NORAD_CAT_ID":"51773","INCLINATION":"53.2176","TIME_SYSTEM":"UTC","APOAPSIS":"527.594","SITE":"AFWTR","EPOCH":"2022-05-23T22:00:01.999584","BSTAR":"-0.04317000000000","LAUNCH_DATE":"2022-02-25","RA_OF_ASC_NODE":"80.1471","CENTER_NAME":"EARTH","CLASSIFICATION_TYPE":"U","MEAN_ANOMALY":"188.2405","SEMIMAJOR_AXIS":"6904.624","MEAN_MOTION":"15.13187414","OBJECT_TYPE":"PAYLOAD","REF_FRAME":"TEME","ARG_OF_PERICENTER":"56.8156","PERIAPSIS":"525.384","ECCENTRICITY":"0.00016000","OBJECT_NAME":"STARLINK-3624","RCS_SIZE":"LARGE","PERIOD":"95.163","TLE_LINE2":"2 51773  53.2176  80.1471 0001600  56.8156 188.2405 15.13187414 14860","FILE":"3460795","MEAN_MOTION_DOT":"-0.00721628","EPHEMERIS_TYPE":"0","MEAN_ELEMENT_THEORY":"SGP4","ELEMENT_SET_NO":"999","REV_AT_EPOCH":"1486","DECAY_DATE":null,"COUNTRY_CODE":"US","MEAN_MOTION_DDOT":"0.0000000000000","OBJECT_ID":"2022-017F"},{"MEAN_MOTION":"15.13980124","OBJECT_TYPE":"PAYLOAD","REF_FRAME":"TEME","ARG_OF_PERICENTER":"51.5917","PERIAPSIS":"523.025","ECCENTRICITY":"0.00015270","OBJECT_NAME":"STARLINK-3629","RCS_SIZE":"LARGE","PERIOD":"95.114","TLE_LINE2":"2 51774  53.2177  80.1557 0001527  51.5917 264.6203 15.13980124  1301","FILE":"3460905","MEAN_MOTION_DOT":"-0.00722905","EPHEMERIS_TYPE":"0","MEAN_ELEMENT_THEORY":"SGP4","ELEMENT_SET_NO":"999","REV_AT_EPOCH":"130","COUNTRY_CODE":"US","DECAY_DATE":null,"MEAN_MOTION_DDOT":"0.0000000000000","OBJECT_ID":"2022-017G","GP_ID":"204368576","TLE_LINE1":"1 51774U 22017G   22143.91668981 -.00722905  00000-0 -42295-1 0  9996","NORAD_CAT_ID":"51774","INCLINATION":"53.2177","TIME_SYSTEM":"UTC","APOAPSIS":"525.133","SITE":"AFWTR","EPOCH":"2022-05-23T22:00:01.999584","BSTAR":"-0.04229500000000","LAUNCH_DATE":"2022-02-25","RA_OF_ASC_NODE":"80.1557","CENTER_NAME":"EARTH","CLASSIFICATION_TYPE":"U","MEAN_ANOMALY":"264.6203","SEMIMAJOR_AXIS":"6902.214"},{"CLASSIFICATION_TYPE":"U","MEAN_ANOMALY":"209.9626","RA_OF_ASC_NODE":"80.1493","LAUNCH_DATE":"2022-02-25","CENTER_NAME":"EARTH","BSTAR":"-0.04294500000000","SEMIMAJOR_AXIS":"6904.021","NORAD_CAT_ID":"51775","GP_ID":"204342073","TLE_LINE1":"1 51775U 22017H   22143.91668981 -.00721873  00000-0 -42945-1 0  9992","SITE":"AFWTR","EPOCH":"2022-05-23T22:00:01.999584","APOAPSIS":"527.009","INCLINATION":"53.2176","TIME_SYSTEM":"UTC","PERIOD":"95.151","RCS_SIZE":"LARGE","OBJECT_NAME":"STARLINK-3620","MEAN_MOTION_DDOT":"0.0000000000000","OBJECT_ID":"2022-017H","REV_AT_EPOCH":"1485","COUNTRY_CODE":"US","DECAY_DATE":null,"ELEMENT_SET_NO":"999","TLE_LINE2":"2 51775  53.2176  80.1493 0001627  53.0207 209.9626 15.13385562 14850","MEAN_MOTION_DOT":"-0.00721873","FILE":"3460794","MEAN_ELEMENT_THEORY":"SGP4","EPHEMERIS_TYPE":"0","OBJECT_TYPE":"PAYLOAD","MEAN_MOTION":"15.13385562","ECCENTRICITY":"0.00016270","PERIAPSIS":"524.763","REF_FRAME":"TEME","ARG_OF_PERICENTER":"53.0207"},{"OBJECT_TYPE":"PAYLOAD","MEAN_MOTION":"15.14178397","ECCENTRICITY":"0.00016100","REF_FRAME":"TEME","ARG_OF_PERICENTER":"45.2163","PERIAPSIS":"522.365","PERIOD":"95.101","OBJECT_NAME":"STARLINK-3608","RCS_SIZE":"LARGE","REV_AT_EPOCH":"130","DECAY_DATE":null,"COUNTRY_CODE":"US","MEAN_MOTION_DDOT":"0.0000000000000","OBJECT_ID":"2022-017J","TLE_LINE2":"2 51776  53.2177  80.1577 0001610  45.2163 288.5541 15.14178397  1303","FILE":"3460905","MEAN_MOTION_DOT":"-0.00723455","EPHEMERIS_TYPE":"0","MEAN_ELEMENT_THEORY":"SGP4","ELEMENT_SET_NO":"999","NORAD_CAT_ID":"51776","TLE_LINE1":"1 51776U 22017J   22143.91668981 -.00723455  00000-0 -42092-1 0  9994","GP_ID":"204367487","SITE":"AFWTR","EPOCH":"2022-05-23T22:00:01.999584","INCLINATION":"53.2177","TIME_SYSTEM":"UTC","APOAPSIS":"524.587","LAUNCH_DATE":"2022-02-25","RA_OF_ASC_NODE":"80.1577","CENTER_NAME":"EARTH","CLASSIFICATION_TYPE":"U","MEAN_ANOMALY":"288.5541","BSTAR":"-0.04209200000000","SEMIMAJOR_AXIS":"6901.611"},{"ECCENTRICITY":"0.00015270","PERIAPSIS":"523.627","REF_FRAME":"TEME","ARG_OF_PERICENTER":"55.3897","OBJECT_TYPE":"PAYLOAD","MEAN_MOTION":"15.13781896","MEAN_MOTION_DDOT":"0.0000000000000","OBJECT_ID":"2022-017K","REV_AT_EPOCH":"130","COUNTRY_CODE":"US","DECAY_DATE":null,"ELEMENT_SET_NO":"999","TLE_LINE2":"2 51777  53.2176  80.1536 0001527  55.3897 243.1715 15.13781896  1304","FILE":"3460905","MEAN_MOTION_DOT":"-0.00722464","MEAN_ELEMENT_THEORY":"SGP4","EPHEMERIS_TYPE":"0","PERIOD":"95.126","RCS_SIZE":"LARGE","OBJECT_NAME":"STARLINK-3625","SITE":"AFWTR","EPOCH":"2022-05-23T22:00:01.999584","APOAPSIS":"525.735","INCLINATION":"53.2176","TIME_SYSTEM":"UTC","NORAD_CAT_ID":"51777","TLE_LINE1":"1 51777U 22017K   22143.91668981 -.00722464  00000-0 -42505-1 0  9993","GP_ID":"204368574","SEMIMAJOR_AXIS":"6902.816","MEAN_ANOMALY":"243.1715","CLASSIFICATION_TYPE":"U","LAUNCH_DATE":"2022-02-25","RA_OF_ASC_NODE":"80.1536","CENTER_NAME":"EARTH","BSTAR":"-0.04250500000000"},{"SEMIMAJOR_AXIS":"6810.575","BSTAR":"-0.01643400000000","CLASSIFICATION_TYPE":"U","MEAN_ANOMALY":"104.0550","CENTER_NAME":"EARTH","LAUNCH_DATE":"2022-02-25","RA_OF_ASC_NODE":"73.1776","APOAPSIS":"433.333","TIME_SYSTEM":"UTC","INCLINATION":"53.2174","EPOCH":"2022-05-23T22:00:01.999584","SITE":"AFWTR","TLE_LINE1":"1 51778U 22017L   22143.91668981 -.00719353  00000-0 -16434-1 0  9999","GP_ID":"204368243","NORAD_CAT_ID":"51778","ELEMENT_SET_NO":"999","MEAN_ELEMENT_THEORY":"SGP4","EPHEMERIS_TYPE":"0","TLE_LINE2":"2 51778  53.2174  73.1776 0001310  83.3412 104.0550 15.44639208  1300","FILE":"3460905","MEAN_MOTION_DOT":"-0.00719353","MEAN_MOTION_DDOT":"0.0000000000000","OBJECT_ID":"2022-017L","DECAY_DATE":null,"COUNTRY_CODE":"US","REV_AT_EPOCH":"130","RCS_SIZE":"LARGE","OBJECT_NAME":"STARLINK-3615","PERIOD":"93.226","PERIAPSIS":"431.548","ARG_OF_PERICENTER":"83.3412","REF_FRAME":"TEME","ECCENTRICITY":"0.00013100","MEAN_MOTION":"15.44639208","OBJECT_TYPE":"PAYLOAD"},{"OBJECT_ID":"2022-017M","MEAN_MOTION_DDOT":"0.0000000000000","REV_AT_EPOCH":"130","DECAY_DATE":null,"COUNTRY_CODE":"US","ELEMENT_SET_NO":"999","TLE_LINE2":"2 51779  53.2177  80.1597 0001677  41.5539 309.6829 15.14376536  1306","FILE":"3460905","MEAN_MOTION_DOT":"-0.00723829","MEAN_ELEMENT_THEORY":"SGP4","EPHEMERIS_TYPE":"0","PERIOD":"95.089","RCS_SIZE":"LARGE","OBJECT_NAME":"STARLINK-3611","ECCENTRICITY":"0.00016770","PERIAPSIS":"521.717","REF_FRAME":"TEME","ARG_OF_PERICENTER":"41.5539","OBJECT_TYPE":"PAYLOAD","MEAN_MOTION":"15.14376536","SEMIMAJOR_AXIS":"6901.009","MEAN_ANOMALY":"309.6829","CLASSIFICATION_TYPE":"U","LAUNCH_DATE":"2022-02-25","RA_OF_ASC_NODE":"80.1597","CENTER_NAME":"EARTH","BSTAR":"-0.04187900000000","SITE":"AFWTR","EPOCH":"2022-05-23T22:00:01.999584","APOAPSIS":"524.031","INCLINATION":"53.2177","TIME_SYSTEM":"UTC","NORAD_CAT_ID":"51779","TLE_LINE1":"1 51779U 22017M   22143.91668981 -.00723829  00000-0 -41879-1 0  9994","GP_ID":"204368445"},{"SITE":"AFWTR","EPOCH":"2022-05-23T22:00:01.999584","APOAPSIS":"522.468","INCLINATION":"53.2177","TIME_SYSTEM":"UTC","NORAD_CAT_ID":"51780","GP_ID":"204367987","TLE_LINE1":"1 51780U 22017N   22143.91668981 -.00724574  00000-0 -41291-1 0  9992","SEMIMAJOR_AXIS":"6899.381","CLASSIFICATION_TYPE":"U","MEAN_ANOMALY":"0.9977","RA_OF_ASC_NODE":"80.1648","LAUNCH_DATE":"2022-02-25","CENTER_NAME":"EARTH","BSTAR":"-0.04129100000000","ECCENTRICITY":"0.00017710","PERIAPSIS":"520.024","REF_FRAME":"TEME","ARG_OF_PERICENTER":"37.7184","OBJECT_TYPE":"PAYLOAD","MEAN_MOTION":"15.14912627","MEAN_MOTION_DDOT":"0.0000000000000","OBJECT_ID":"2022-017N","REV_AT_EPOCH":"130","DECAY_DATE":null,"COUNTRY_CODE":"US","ELEMENT_SET_NO":"999","TLE_LINE2":"2 51780  53.2177  80.1648 0001771  37.7184   0.9977 15.14912627  1305","FILE":"3460905","MEAN_MOTION_DOT":"-0.00724574","MEAN_ELEMENT_THEORY":"SGP4","EPHEMERIS_TYPE":"0","PERIOD":"95.055","RCS_SIZE":"LARGE","OBJECT_NAME":"STARLINK-3617"},{"EPOCH":"2022-05-23T22:00:01.999584","SITE":"AFWTR","APOAPSIS":"523.455","TIME_SYSTEM":"UTC","INCLINATION":"53.2177","NORAD_CAT_ID":"51781","TLE_LINE1":"1 51781U 22017P   22143.91668981 -.00724137  00000-0 -41663-1 0  9991","GP_ID":"204368241","SEMIMAJOR_AXIS":"6900.407","MEAN_ANOMALY":"329.4669","CLASSIFICATION_TYPE":"U","CENTER_NAME":"EARTH","RA_OF_ASC_NODE":"80.1617","LAUNCH_DATE":"2022-02-25","BSTAR":"-0.04166300000000","ECCENTRICITY":"0.00017140","PERIAPSIS":"521.090","ARG_OF_PERICENTER":"39.1440","REF_FRAME":"TEME","OBJECT_TYPE":"PAYLOAD","MEAN_MOTION":"15.14574611","OBJECT_ID":"2022-017P","MEAN_MOTION_DDOT":"0.0000000000000","COUNTRY_CODE":"US","DECAY_DATE":null,"REV_AT_EPOCH":"130","ELEMENT_SET_NO":"999","MEAN_ELEMENT_THEORY":"SGP4","EPHEMERIS_TYPE":"0","MEAN_MOTION_DOT":"-0.00724137","TLE_LINE2":"2 51781  53.2177  80.1617 0001714  39.1440 329.4669 15.14574611  1304","FILE":"3460905","PERIOD":"95.076","OBJECT_NAME":"STARLINK-3580","RCS_SIZE":"LARGE"},{"CLASSIFICATION_TYPE":"U","MEAN_ANOMALY":"254.8565","RA_OF_ASC_NODE":"90.0919","LAUNCH_DATE":"2022-02-25","CENTER_NAME":"EARTH","BSTAR":"-0.00760670000000","SEMIMAJOR_AXIS":"6917.789","NORAD_CAT_ID":"51782","GP_ID":"204341787","TLE_LINE1":"1 51782U 22017Q   22143.91668981 -.00119446  00000-0 -76067-2 0  9990","SITE":"AFWTR","EPOCH":"2022-05-23T22:00:01.999584","APOAPSIS":"540.832","INCLINATION":"53.2163","TIME_SYSTEM":"UTC","PERIOD":"95.436","RCS_SIZE":"MEDIUM","OBJECT_NAME":"STARLINK-3616","MEAN_MOTION_DDOT":"0.0000000000000","OBJECT_ID":"2022-017Q","REV_AT_EPOCH":"1471","COUNTRY_CODE":"US","DECAY_DATE":null,"ELEMENT_SET_NO":"999","TLE_LINE2":"2 51782  53.2163  90.0919 0001703  57.6190 254.8565 15.08869792 14715","FILE":"3460794","MEAN_MOTION_DOT":"-0.00119446","EPHEMERIS_TYPE":"0","MEAN_ELEMENT_THEORY":"SGP4","OBJECT_TYPE":"PAYLOAD","MEAN_MOTION":"15.08869792","ECCENTRICITY":"0.00017030","PERIAPSIS":"538.476","REF_FRAME":"TEME","ARG_OF_PERICENTER":"57.6190"}];
